[{"OBJECT_NAME":"HERMES-1","OBJECT_ID":"2025-052AJ","EPOCH":"2026-03-09T16:38:32.274240","MEAN_MOTION":15.20586525,"ECCENTRICITY":0.00077337,"INCLINATION":97.402,"RA_OF_ASC_NODE":322.1122,"ARG_OF_PERICENTER":159.5432,"MEAN_ANOMALY":200.6114,"EPHEMERIS_TYPE":0,"CLASSIFICATION_TYPE":"U","NORAD_CAT_ID":63242,"ELEMENT_SET_NO":999,"REV_AT_EPOCH":5467,"BSTAR":0.00030412642,"MEAN_MOTION_DOT":6.601e-5,"MEAN_MOTION_DDOT":0},{"OBJECT_NAME":"TRANSPORTER-15 OBJECT CN","OBJECT_ID":"2025-276CN","EPOCH":"2026-03-09T04:35:33.344160","MEAN_MOTION":15.18977527,"ECCENTRICITY":5.071e-5,"INCLINATION":97.4304,"RA_OF_ASC_NODE":143.5648,"ARG_OF_PERICENTER":336.0158,"MEAN_ANOMALY":24.1053,"EPHEMERIS_TYPE":0,"CLASSIFICATION_TYPE":"U","NORAD_CAT_ID":66750,"ELEMENT_SET_NO":999,"REV_AT_EPOCH":1524,"BSTAR":0.00028330364,"MEAN_MOTION_DOT":5.857e-5,"MEAN_MOTION_DDOT":0}]
